        {
          "type": "FeatureCollection",
          "features": [
            {
  "type": "Feature",
  "geometry": {
    "type": "LineString",
    "coordinates": [ [15.634358753736873, 46.55994906598598], [15.635045931964159, 46.559809312141304] ]
  },
  "properties": { "type": "road", "name": "Belaceva ulica" }
},
{
  "type": "Feature",
  "geometry": {
    "type": "LineString",
    "coordinates": [ [15.635055610530742, 46.559800993448725], [15.635142717629973, 46.55971447897026] ]
  },
  "properties": { "type": "road", "name": "Belaceva ulica", "angle": 45.0 }
},
{
  "type": "Feature",
  "geometry": {
    "type": "Polygon",
    "coordinates": [ [ [15.634704785498586, 46.560107281611195], [15.634824814346695, 46.5600842282473], [15.634818108824453, 46.56006163594117], [15.634864376927915, 46.560051031386045], [15.634821461585574, 46.55994636892673], [15.634655835186228, 46.55997541623744], [15.634704785498586, 46.560107281611195] ] ]
  },
  "properties": { "type": "building", "name": "hisa" }
},
{
  "type": "Feature",
  "geometry": {
    "type": "Polygon",
    "coordinates": [ [ [15.641627664431404, 46.558451151689034], [15.641627568357807, 46.55845212714065], [15.641627283829067, 46.5584530651062], [15.641626821779466, 46.5584539295402], [15.64162619996531, 46.55845468722294], [15.64162544228257, 46.55845530903709], [15.641624577848566, 46.5584557710867], [15.641623639883013, 46.55845605561544], [15.641622664431404, 46.558456151689036], [15.641621688979795, 46.55845605561544], [15.641620751014242, 46.5584557710867], [15.641619886580239, 46.55845530903709], [15.641619128897498, 46.55845468722294], [15.641618507083342, 46.5584539295402], [15.641618045033741, 46.5584530651062], [15.641617760505001, 46.55845212714065], [15.641617664431404, 46.558451151689034], [15.641617760505001, 46.55845017623742], [15.641618045033741, 46.55844923827187], [15.641618507083342, 46.55844837383787], [15.641619128897498, 46.55844761615513], [15.641619886580239, 46.558446994340976], [15.641620751014242, 46.55844653229137], [15.641621688979795, 46.55844624776263], [15.641622664431404, 46.55844615168903], [15.641623639883013, 46.55844624776263], [15.641624577848566, 46.55844653229137], [15.64162544228257, 46.558446994340976], [15.64162619996531, 46.55844761615513], [15.641626821779466, 46.55844837383787], [15.641627283829067, 46.55844923827187], [15.641627568357807, 46.55845017623742], [15.641627664431404, 46.558451151689034] ] ]
  },
  "properties": { "type": "eco-island", "name": "Recycle A" }
},
{
  "type": "Feature",
  "geometry": {
    "type": "Polygon",
    "coordinates": [ [ [15.641620288358094, 46.558413343012454], [15.641620192284497, 46.55841431846407], [15.641619907755757, 46.55841525642962], [15.641619445706157, 46.55841612086362], [15.641618823892001, 46.55841687854636], [15.64161806620926, 46.55841750036051], [15.641617201775256, 46.55841796241012], [15.641616263809704, 46.55841824693886], [15.641615288358095, 46.558418343012455], [15.641614312906485, 46.55841824693886], [15.641613374940933, 46.55841796241012], [15.64161251050693, 46.55841750036051], [15.641611752824188, 46.55841687854636], [15.641611131010032, 46.55841612086362], [15.641610668960432, 46.55841525642962], [15.641610384431692, 46.55841431846407], [15.641610288358095, 46.558413343012454], [15.641610384431692, 46.55841236756084], [15.641610668960432, 46.55841142959529], [15.641611131010032, 46.55841056516129], [15.641611752824188, 46.55840980747855], [15.64161251050693, 46.558409185664395], [15.641613374940933, 46.55840872361479], [15.641614312906485, 46.55840843908605], [15.641615288358095, 46.55840834301245], [15.641616263809704, 46.55840843908605], [15.641617201775256, 46.55840872361479], [15.64161806620926, 46.558409185664395], [15.641618823892001, 46.55840980747855], [15.641619445706157, 46.55841056516129], [15.641619907755757, 46.55841142959529], [15.641620192284497, 46.55841236756084], [15.641620288358094, 46.558413343012454] ] ]
  },
  "properties": { "type": "eco-island", "name": "Recycle C" }
},
{
  "type": "Feature",
  "geometry": {
    "type": "Polygon",
    "coordinates": [ [ [15.641626323328113, 46.55843040302804], [15.641626227254516, 46.55843137847965], [15.641625942725776, 46.558432316445206], [15.641625480676176, 46.558433180879206], [15.64162485886202, 46.55843393856195], [15.641624101179278, 46.5584345603761], [15.641623236745275, 46.558435022425705], [15.641622298779723, 46.55843530695444], [15.641621323328113, 46.55843540302804], [15.641620347876504, 46.55843530695444], [15.641619409910952, 46.558435022425705], [15.641618545476948, 46.5584345603761], [15.641617787794207, 46.55843393856195], [15.641617165980051, 46.558433180879206], [15.64161670393045, 46.558432316445206], [15.64161641940171, 46.55843137847965], [15.641616323328114, 46.55843040302804], [15.64161641940171, 46.55842942757643], [15.64161670393045, 46.558428489610876], [15.641617165980051, 46.558427625176876], [15.641617787794207, 46.558426867494134], [15.641618545476948, 46.55842624567998], [15.641619409910952, 46.558425783630376], [15.641620347876504, 46.55842549910164], [15.641621323328113, 46.55842540302804], [15.641622298779723, 46.55842549910164], [15.641623236745275, 46.558425783630376], [15.641624101179278, 46.55842624567998], [15.64162485886202, 46.558426867494134], [15.641625480676176, 46.558427625176876], [15.641625942725776, 46.558428489610876], [15.641626227254516, 46.55842942757643], [15.641626323328113, 46.55843040302804] ] ]
  },
  "properties": { "type": "eco-island", "name": "Recycle B" }
},
{
  "type": "Feature",
  "geometry": {
    "type": "Point",
    "coordinates": [ 15.628367966505106, 46.56291695725025 ]
  },
  "properties": { "type": "bin" }
},
{
  "type": "Feature",
  "geometry": {
    "type": "Polygon",
    "coordinates": [ [ [15.612722043135523, 46.57159649835781], [15.613108921985967, 46.57159649835781], [15.613108921985967, 46.571378621944625], [15.612722043135523, 46.571378621944625], [15.612722043135523, 46.57159649835781] ] ]
  },
  "properties": { "type": "disposal-site", "name": "BigWaste" }
},
{
  "type": "Feature",
  "geometry": {
    "type": "Point",
    "coordinates": [ 15.631198175160979, 46.5595917067311 ]
  },
  "properties": { 
    "type": "report",
    "marker-color": "#FF0000",
    "marker-symbol": "info" 
  }
}
          ]
        }